ONEWEB-0461             
1 51649U 22012AD  26132.23535209 -.00000067  00000+0 -20579-3 0  9995
2 51649  87.9177  13.0012 0001699  84.4852 275.6473 13.17649611209159
ONEWEB-0463             
1 51650U 22012AE  26132.21678921  .00000027  00000+0  35936-4 0  9992
2 51650  87.9168  13.0310 0001694  85.2347 274.8978 13.17648883208931
ONEWEB-0464             
1 51651U 22012AF  26132.22125506  .00000100  00000+0  25090-3 0  9991
2 51651  87.8850  43.4392 0002070  73.4817 286.6538 13.10369771204619
ONEWEB-0468             
1 51652U 22012AG  26132.22790121 -.00000292  00000+0 -87382-3 0  9999
2 51652  87.8855  43.4320 0002068  70.9713 289.1639 13.10371521204593
ONEWEB-0473             
1 51653U 22012AH  26132.28931926  .00000506  00000+0  14132-2 0  9994
2 51653  87.8851  43.4212 0001995  77.8263 282.3088 13.10370636204605
ONEWEB-0474             
1 51654U 22012AJ  26132.28102617  .00000744  00000+0  20957-2 0  9998
2 51654  87.8865  43.4035 0002145  73.6765 286.4598 13.10373281204591
ONEWEB-0475             
1 51655U 22012AK  26132.22859671  .00000040  00000+0  70151-4 0  9994
2 51655  87.9168  13.0211 0002406  74.2933 285.8464 13.17648352208952
ONEWEB-0490             
1 54113U 22138A   26132.19743015  .00000025  00000+0  30647-4 0  9994
2 54113  87.9152 312.1413 0001772  84.5100 275.6235 13.19725559172083
ONEWEB-0492             
1 54114U 22138B   26132.22269975  .00000100  00000+0  21645-3 0  9998
2 54114  87.9144 312.1407 0001632  86.5514 273.5805 13.19725339172091
ONEWEB-0495             
1 54115U 22138C   26132.20058943  .00000059  00000+0  11402-3 0  9991
2 54115  87.9146 312.1475 0001869  69.7422 290.3911 13.19726002172073
ONEWEB-0497             
1 54116U 22138D   26132.21322470  .00000069  00000+0  14050-3 0  9995
2 54116  87.9150 312.1355 0001779  88.0714 272.0622 13.19725435172068
ONEWEB-0499             
1 54117U 22138E   26132.19663796  .00000057  00000+0  11060-3 0  9997
2 54117  87.9145 312.1497 0001922  83.6134 276.5217 13.19725108172074
ONEWEB-0500             
1 54118U 22138F   26132.19901256 -.00000005  00000+0 -45411-4 0  9997
2 54118  87.9155 312.1400 0001722  92.0464 268.0866 13.19726166172080
ONEWEB-0501             
1 54119U 22138G   26132.22902779  .00000126  00000+0  28245-3 0  9990
2 54119  87.9153 312.1342 0001850  80.5859 279.5483 13.19725762172067
ONEWEB-0502             
1 54120U 22138H   26132.21479650  .00000060  00000+0  11675-3 0  9994
2 54120  87.9154 312.1256 0001969  83.7823 276.3534 13.19726122172086
ONEWEB-0503             
1 54121U 22138J   26132.20374784  .00000116  00000+0  25772-3 0  9991
2 54121  87.9156 312.1328 0002050  93.1850 266.9517 13.19726170172074
