[{"OBJECT_NAME":"ONEWEB-0461","OBJECT_ID":"2022-012AD","EPOCH":"2026-05-12T05:38:54.420576","MEAN_MOTION":13.17649611,"ECCENTRICITY":0.0001699,"INCLINATION":87.9177,"RA_OF_ASC_NODE":13.0012,"ARG_OF_PERICENTER":84.4852,"MEAN_ANOMALY":275.6473,"EPHEMERIS_TYPE":0,"CLASSIFICATION_TYPE":"U","NORAD_CAT_ID":51649,"ELEMENT_SET_NO":999,"REV_AT_EPOCH":20915,"BSTAR":-0.00020579,"MEAN_MOTION_DOT":-6.7e-07,"MEAN_MOTION_DDOT":0.0},{"OBJECT_NAME":"ONEWEB-0463","OBJECT_ID":"2022-012AE","EPOCH":"2026-05-12T05:12:10.587744","MEAN_MOTION":13.17648883,"ECCENTRICITY":0.0001694,"INCLINATION":87.9168,"RA_OF_ASC_NODE":13.031,"ARG_OF_PERICENTER":85.2347,"MEAN_ANOMALY":274.8978,"EPHEMERIS_TYPE":0,"CLASSIFICATION_TYPE":"U","NORAD_CAT_ID":51650,"ELEMENT_SET_NO":999,"REV_AT_EPOCH":20893,"BSTAR":3.5936e-05,"MEAN_MOTION_DOT":2.7e-07,"MEAN_MOTION_DDOT":0.0},{"OBJECT_NAME":"ONEWEB-0464","OBJECT_ID":"2022-012AF","EPOCH":"2026-05-12T05:18:36.437184","MEAN_MOTION":13.10369771,"ECCENTRICITY":0.000207,"INCLINATION":87.885,"RA_OF_ASC_NODE":43.4392,"ARG_OF_PERICENTER":73.4817,"MEAN_ANOMALY":286.6538,"EPHEMERIS_TYPE":0,"CLASSIFICATION_TYPE":"U","NORAD_CAT_ID":51651,"ELEMENT_SET_NO":999,"REV_AT_EPOCH":20461,"BSTAR":0.0002509,"MEAN_MOTION_DOT":1e-06,"MEAN_MOTION_DDOT":0.0},{"OBJECT_NAME":"ONEWEB-0468","OBJECT_ID":"2022-012AG","EPOCH":"2026-05-12T05:28:10.664544","MEAN_MOTION":13.10371521,"ECCENTRICITY":0.0002068,"INCLINATION":87.8855,"RA_OF_ASC_NODE":43.432,"ARG_OF_PERICENTER":70.9713,"MEAN_ANOMALY":289.1639,"EPHEMERIS_TYPE":0,"CLASSIFICATION_TYPE":"U","NORAD_CAT_ID":51652,"ELEMENT_SET_NO":999,"REV_AT_EPOCH":20459,"BSTAR":-0.0008738200000000001,"MEAN_MOTION_DOT":-2.92e-06,"MEAN_MOTION_DDOT":0.0},{"OBJECT_NAME":"ONEWEB-0473","OBJECT_ID":"2022-012AH","EPOCH":"2026-05-12T06:56:37.184064","MEAN_MOTION":13.10370636,"ECCENTRICITY":0.0001995,"INCLINATION":87.8851,"RA_OF_ASC_NODE":43.4212,"ARG_OF_PERICENTER":77.8263,"MEAN_ANOMALY":282.3088,"EPHEMERIS_TYPE":0,"CLASSIFICATION_TYPE":"U","NORAD_CAT_ID":51653,"ELEMENT_SET_NO":999,"REV_AT_EPOCH":20460,"BSTAR":0.0014132,"MEAN_MOTION_DOT":5.06e-06,"MEAN_MOTION_DDOT":0.0},{"OBJECT_NAME":"ONEWEB-0474","OBJECT_ID":"2022-012AJ","EPOCH":"2026-05-12T06:44:40.661088","MEAN_MOTION":13.10373281,"ECCENTRICITY":0.0002145,"INCLINATION":87.8865,"RA_OF_ASC_NODE":43.4035,"ARG_OF_PERICENTER":73.6765,"MEAN_ANOMALY":286.4598,"EPHEMERIS_TYPE":0,"CLASSIFICATION_TYPE":"U","NORAD_CAT_ID":51654,"ELEMENT_SET_NO":999,"REV_AT_EPOCH":20459,"BSTAR":0.0020957000000000003,"MEAN_MOTION_DOT":7.44e-06,"MEAN_MOTION_DDOT":0.0},{"OBJECT_NAME":"ONEWEB-0475","OBJECT_ID":"2022-012AK","EPOCH":"2026-05-12T05:29:10.755744","MEAN_MOTION":13.17648352,"ECCENTRICITY":0.0002406,"INCLINATION":87.9168,"RA_OF_ASC_NODE":13.0211,"ARG_OF_PERICENTER":74.2933,"MEAN_ANOMALY":285.8464,"EPHEMERIS_TYPE":0,"CLASSIFICATION_TYPE":"U","NORAD_CAT_ID":51655,"ELEMENT_SET_NO":999,"REV_AT_EPOCH":20895,"BSTAR":7.0151e-05,"MEAN_MOTION_DOT":4e-07,"MEAN_MOTION_DDOT":0.0},{"OBJECT_NAME":"ONEWEB-0490","OBJECT_ID":"2022-138A","EPOCH":"2026-05-12T04:44:17.964960","MEAN_MOTION":13.19725559,"ECCENTRICITY":0.0001772,"INCLINATION":87.9152,"RA_OF_ASC_NODE":312.1413,"ARG_OF_PERICENTER":84.51,"MEAN_ANOMALY":275.6235,"EPHEMERIS_TYPE":0,"CLASSIFICATION_TYPE":"U","NORAD_CAT_ID":54113,"ELEMENT_SET_NO":999,"REV_AT_EPOCH":17208,"BSTAR":3.0647000000000007e-05,"MEAN_MOTION_DOT":2.5e-07,"MEAN_MOTION_DDOT":0.0},{"OBJECT_NAME":"ONEWEB-0492","OBJECT_ID":"2022-138B","EPOCH":"2026-05-12T05:20:41.258400","MEAN_MOTION":13.19725339,"ECCENTRICITY":0.0001632,"INCLINATION":87.9144,"RA_OF_ASC_NODE":312.1407,"ARG_OF_PERICENTER":86.5514,"MEAN_ANOMALY":273.5805,"EPHEMERIS_TYPE":0,"CLASSIFICATION_TYPE":"U","NORAD_CAT_ID":54114,"ELEMENT_SET_NO":999,"REV_AT_EPOCH":17209,"BSTAR":0.00021645,"MEAN_MOTION_DOT":1e-06,"MEAN_MOTION_DDOT":0.0},{"OBJECT_NAME":"ONEWEB-0495","OBJECT_ID":"2022-138C","EPOCH":"2026-05-12T04:48:50.926752","MEAN_MOTION":13.19726002,"ECCENTRICITY":0.0001869,"INCLINATION":87.9146,"RA_OF_ASC_NODE":312.1475,"ARG_OF_PERICENTER":69.7422,"MEAN_ANOMALY":290.3911,"EPHEMERIS_TYPE":0,"CLASSIFICATION_TYPE":"U","NORAD_CAT_ID":54115,"ELEMENT_SET_NO":999,"REV_AT_EPOCH":17207,"BSTAR":0.00011402,"MEAN_MOTION_DOT":5.9e-07,"MEAN_MOTION_DDOT":0.0},{"OBJECT_NAME":"ONEWEB-0497","OBJECT_ID":"2022-138D","EPOCH":"2026-05-12T05:07:02.614080","MEAN_MOTION":13.19725435,"ECCENTRICITY":0.0001779,"INCLINATION":87.915,"RA_OF_ASC_NODE":312.1355,"ARG_OF_PERICENTER":88.0714,"MEAN_ANOMALY":272.0622,"EPHEMERIS_TYPE":0,"CLASSIFICATION_TYPE":"U","NORAD_CAT_ID":54116,"ELEMENT_SET_NO":999,"REV_AT_EPOCH":17206,"BSTAR":0.00014050000000000003,"MEAN_MOTION_DOT":6.9e-07,"MEAN_MOTION_DDOT":0.0},{"OBJECT_NAME":"ONEWEB-0499","OBJECT_ID":"2022-138E","EPOCH":"2026-05-12T04:43:09.519744","MEAN_MOTION":13.19725108,"ECCENTRICITY":0.0001922,"INCLINATION":87.9145,"RA_OF_ASC_NODE":312.1497,"ARG_OF_PERICENTER":83.6134,"MEAN_ANOMALY":276.5217,"EPHEMERIS_TYPE":0,"CLASSIFICATION_TYPE":"U","NORAD_CAT_ID":54117,"ELEMENT_SET_NO":999,"REV_AT_EPOCH":17207,"BSTAR":0.0001106,"MEAN_MOTION_DOT":5.7e-07,"MEAN_MOTION_DDOT":0.0},{"OBJECT_NAME":"ONEWEB-0500","OBJECT_ID":"2022-138F","EPOCH":"2026-05-12T04:46:34.685184","MEAN_MOTION":13.19726166,"ECCENTRICITY":0.0001722,"INCLINATION":87.9155,"RA_OF_ASC_NODE":312.14,"ARG_OF_PERICENTER":92.0464,"MEAN_ANOMALY":268.0866,"EPHEMERIS_TYPE":0,"CLASSIFICATION_TYPE":"U","NORAD_CAT_ID":54118,"ELEMENT_SET_NO":999,"REV_AT_EPOCH":17208,"BSTAR":-4.5411e-05,"MEAN_MOTION_DOT":-5e-08,"MEAN_MOTION_DDOT":0.0},{"OBJECT_NAME":"ONEWEB-0501","OBJECT_ID":"2022-138G","EPOCH":"2026-05-12T05:29:48.001056","MEAN_MOTION":13.19725762,"ECCENTRICITY":0.000185,"INCLINATION":87.9153,"RA_OF_ASC_NODE":312.1342,"ARG_OF_PERICENTER":80.5859,"MEAN_ANOMALY":279.5483,"EPHEMERIS_TYPE":0,"CLASSIFICATION_TYPE":"U","NORAD_CAT_ID":54119,"ELEMENT_SET_NO":999,"REV_AT_EPOCH":17206,"BSTAR":0.00028245,"MEAN_MOTION_DOT":1.26e-06,"MEAN_MOTION_DDOT":0.0},{"OBJECT_NAME":"ONEWEB-0502","OBJECT_ID":"2022-138H","EPOCH":"2026-05-12T05:09:18.417600","MEAN_MOTION":13.19726122,"ECCENTRICITY":0.0001969,"INCLINATION":87.9154,"RA_OF_ASC_NODE":312.1256,"ARG_OF_PERICENTER":83.7823,"MEAN_ANOMALY":276.3534,"EPHEMERIS_TYPE":0,"CLASSIFICATION_TYPE":"U","NORAD_CAT_ID":54120,"ELEMENT_SET_NO":999,"REV_AT_EPOCH":17208,"BSTAR":0.00011675,"MEAN_MOTION_DOT":6e-07,"MEAN_MOTION_DDOT":0.0},{"OBJECT_NAME":"ONEWEB-0503","OBJECT_ID":"2022-138J","EPOCH":"2026-05-12T04:53:23.813376","MEAN_MOTION":13.1972617,"ECCENTRICITY":0.000205,"INCLINATION":87.9156,"RA_OF_ASC_NODE":312.1328,"ARG_OF_PERICENTER":93.185,"MEAN_ANOMALY":266.9517,"EPHEMERIS_TYPE":0,"CLASSIFICATION_TYPE":"U","NORAD_CAT_ID":54121,"ELEMENT_SET_NO":999,"REV_AT_EPOCH":17207,"BSTAR":0.00025772,"MEAN_MOTION_DOT":1.16e-06,"MEAN_MOTION_DDOT":0.0}]